{
    "links": {
        "self": "http://www.neowsapp.com/rest/v1/neo/3766464?api_key=iIulBulltgU6a56xZRHN4H3l9WmuAYTsLGpBGhQ2"
    },
    "id": "3766464",
    "neo_reference_id": "3766464",
    "name": "(2017 AA14)",
    "designation": "2017 AA14",
    "nasa_jpl_url": "http://ssd.jpl.nasa.gov/sbdb.cgi?sstr=3766464",
    "absolute_magnitude_h": 24.8,
    "estimated_diameter": {
        "kilometers": {
            "estimated_diameter_min": 0.0291443905,
            "estimated_diameter_max": 0.0651688382
        },
        "meters": {
            "estimated_diameter_min": 29.1443904535,
            "estimated_diameter_max": 65.1688382168
        },
        "miles": {
            "estimated_diameter_min": 0.018109479,
            "estimated_diameter_max": 0.0404940262
        },
        "feet": {
            "estimated_diameter_min": 95.6180819754,
            "estimated_diameter_max": 213.8085311752
        }
    },
    "is_potentially_hazardous_asteroid": false,
    "close_approach_data": [
        {
            "close_approach_date": "2016-12-23",
            "close_approach_date_full": "2016-Dec-23 15:56",
            "epoch_date_close_approach": 1482508560000,
            "relative_velocity": {
                "kilometers_per_second": "10.1149503791",
                "kilometers_per_hour": "36413.8213647226",
                "miles_per_hour": "22626.1325029855"
            },
            "miss_distance": {
                "astronomical": "0.0512525195",
                "lunar": "19.9372300855",
                "kilometers": "7667267.749333465",
                "miles": "4764219.259653217"
            },
            "orbiting_body": "Earth"
        }
    ],
    "orbital_data": {
        "orbit_id": "2",
        "orbit_determination_date": "2017-04-06 08:21:03",
        "first_observation_date": "2017-01-07",
        "last_observation_date": "2017-01-09",
        "data_arc_in_days": 2,
        "observations_used": 30,
        "orbit_uncertainty": "8",
        "minimum_orbit_intersection": ".0508199",
        "jupiter_tisserand_invariant": "4.085",
        "epoch_osculation": "2457761.5",
        "eccentricity": ".4480984996450396",
        "semi_major_axis": "1.690109242869998",
        "inclination": "9.059372519234801",
        "ascending_node_longitude": "106.949806546091",
        "orbital_period": "802.5472152184534",
        "perihelion_distance": ".932773826903738",
        "perihelion_argument": "302.7358039705039",
        "aphelion_distance": "2.447444658836258",
        "perihelion_time": "2457712.586715011386",
        "mean_anomaly": "21.941117309974",
        "mean_motion": ".4485717390496557",
        "equinox": "J2000",
        "orbit_class": {
            "orbit_class_type": "APO",
            "orbit_class_description": "Near-Earth asteroid orbits which cross the Earth’s orbit similar to that of 1862 Apollo",
            "orbit_class_range": "a (semi-major axis) > 1.0 AU; q (perihelion) < 1.017 AU"
        }
    },
    "is_sentry_object": false
}